{"type": "FeatureCollection", "features": [ {"type": "Feature", "properties": {"norad_id": 37094, "name": "COSMOS 2251 DEB", "group": "cosmos-2251-debris", "lat": -36.08869117471855, "lon": 87.25312490783801, "alt_km": 780.8984063198914, "timestamp": "2025-12-24T16:52:41.935204+00:00", "meta": {"OBJECT_NAME": "COSMOS 2251 DEB", "OBJECT_ID": "1993-036BFQ", "EPOCH": "2025-12-10T15:45:11.030688", "MEAN_MOTION": 14.37808892, "ECCENTRICITY": 0.0084108, "INCLINATION": 74.1091, "RA_OF_ASC_NODE": 124.9809, "ARG_OF_PERICENTER": 91.4784, "MEAN_ANOMALY": 269.6007, "EPHEMERIS_TYPE": 0, "CLASSIFICATION_TYPE": "U", "NORAD_CAT_ID": 37094, "ELEMENT_SET_NO": 999, "REV_AT_EPOCH": 84476, "BSTAR": 0.0015212, "MEAN_MOTION_DOT": 4.753e-05, "MEAN_MOTION_DDOT": 0}, "tle": {"line1": "1 37094U 93036BFQ 25344.65637767  .00004753  00000+0  15212-2 0  9990", "line2": "2 37094  74.1091 124.9809 0084108  91.4784 269.6007 14.37808892844763"}}, "geometry": {"type": "Point", "coordinates": [87.25312490783801, -36.08869117471855]}}, {"type": "Feature", "properties": {"norad_id": 37095, "name": "COSMOS 2251 DEB", "group": "cosmos-2251-debris", "lat": -27.67048659756118, "lon": -2.4198945962785077, "alt_km": 751.6844603136506, "timestamp": "2025-12-24T16:52:41.935215+00:00", "meta": {"OBJECT_NAME": "COSMOS 2251 DEB", "OBJECT_ID": "1993-036BFR", "EPOCH": "2025-12-20T05:48:30.438144", "MEAN_MOTION": 14.03423265, "ECCENTRICITY": 0.01937256, "INCLINATION": 73.8447, "RA_OF_ASC_NODE": 176.6944, "ARG_OF_PERICENTER": 233.1449, "MEAN_ANOMALY": 125.1788, "EPHEMERIS_TYPE": 0, "CLASSIFICATION_TYPE": "U", "NORAD_CAT_ID": 37095, "ELEMENT_SET_NO": 999, "REV_AT_EPOCH": 62741, "BSTAR": 0.00075143733, "MEAN_MOTION_DOT": 1.362e-05, "MEAN_MOTION_DDOT": 0}, "tle": {"line1": "1 37095U 93036BFR 25354.24201896  .00001362  00000+0  75144-3 0  9991", "line2": "2 37095  73.8447 176.6944 0193725 233.1449 125.1788 14.03423265627411"}}, "geometry": {"type": "Point", "coordinates": [-2.4198945962785077, -27.67048659756118]}}, {"type": "Feature", "properties": {"norad_id": 37108, "name": "COSMOS 2251 DEB", "group": "cosmos-2251-debris", "lat": 72.6406649129501, "lon": 124.65501328206409, "alt_km": 703.9976722230385, "timestamp": "2025-12-24T16:52:41.935225+00:00", "meta": {"OBJECT_NAME": "COSMOS 2251 DEB", "OBJECT_ID": "1993-036BGE", "EPOCH": "2025-12-23T20:30:19.001376", "MEAN_MOTION": 14.41379372, "ECCENTRICITY": 0.0090288, "INCLINATION": 74.0439, "RA_OF_ASC_NODE": 59.9876, "ARG_OF_PERICENTER": 133.8681, "MEAN_ANOMALY": 226.9981, "EPHEMERIS_TYPE": 0, "CLASSIFICATION_TYPE": "U", "NORAD_CAT_ID": 37108, "ELEMENT_SET_NO": 999, "REV_AT_EPOCH": 85667, "BSTAR": 0.0010155, "MEAN_MOTION_DOT": 3.428e-05, "MEAN_MOTION_DDOT": 0}, "tle": {"line1": "1 37108U 93036BGE 25357.85438659  .00003428  00000+0  10155-2 0  9990", "line2": "2 37108  74.0439  59.9876 0090288 133.8681 226.9981 14.41379372856679"}}, "geometry": {"type": "Point", "coordinates": [124.65501328206409, 72.6406649129501]}}, {"type": "Feature", "properties": {"norad_id": 37126, "name": "COSMOS 2251 DEB", "group": "cosmos-2251-debris", "lat": -73.943212841822, "lon": -118.93664747225495, "alt_km": 618.5974443773102, "timestamp": "2025-12-24T16:52:41.935236+00:00", "meta": {"OBJECT_NAME": "COSMOS 2251 DEB", "OBJECT_ID": "1993-036BGY", "EPOCH": "2025-12-22T16:23:31.818624", "MEAN_MOTION": 14.73102933, "ECCENTRICITY": 0.0122717, "INCLINATION": 73.9534, "RA_OF_ASC_NODE": 335.0511, "ARG_OF_PERICENTER": 211.0565, "MEAN_ANOMALY": 148.3315, "EPHEMERIS_TYPE": 0, "CLASSIFICATION_TYPE": "U", "NORAD_CAT_ID": 37126, "ELEMENT_SET_NO": 999, "REV_AT_EPOCH": 8245, "BSTAR": 0.0001993635, "MEAN_MOTION_DOT": 1.408e-05, "MEAN_MOTION_DDOT": 0}, "tle": {"line1": "1 37126U 93036BGY 25356.68300716  .00001408  00000+0  19936-3 0  9995", "line2": "2 37126  73.9534 335.0511 0122717 211.0565 148.3315 14.73102933 82457"}}, "geometry": {"type": "Point", "coordinates": [-118.93664747225495, -73.943212841822]}}, {"type": "Feature", "properties": {"norad_id": 37132, "name": "COSMOS 2251 DEB", "group": "cosmos-2251-debris", "lat": 10.200209648094695, "lon": 27.550927297549574, "alt_km": 664.3904768727125, "timestamp": "2025-12-24T16:52:41.935247+00:00", "meta": {"OBJECT_NAME": "COSMOS 2251 DEB", "OBJECT_ID": "1993-036BHE", "EPOCH": "2025-12-21T08:30:46.700352", "MEAN_MOTION": 14.77932958, "ECCENTRICITY": 0.00403307, "INCLINATION": 74.0023, "RA_OF_ASC_NODE": 217.0951, "ARG_OF_PERICENTER": 11.0309, "MEAN_ANOMALY": 349.1741, "EPHEMERIS_TYPE": 0, "CLASSIFICATION_TYPE": "U", "NORAD_CAT_ID": 37132, "ELEMENT_SET_NO": 999, "REV_AT_EPOCH": 62543, "BSTAR": 0.0006420237, "MEAN_MOTION_DOT": 4.657e-05, "MEAN_MOTION_DDOT": 0}, "tle": {"line1": "1 37132U 93036BHE 25355.35470718  .00004657  00000+0  64202-3 0  9990", "line2": "2 37132  74.0023 217.0951 0040330  11.0309 349.1741 14.77932958625437"}}, "geometry": {"type": "Point", "coordinates": [27.550927297549574, 10.200209648094695]}}, {"type": "Feature", "properties": {"norad_id": 37270, "name": "COSMOS 2251 DEB", "group": "cosmos-2251-debris", "lat": -68.4651147618467, "lon": -90.51803853506918, "alt_km": 816.2898301688065, "timestamp": "2025-12-24T16:52:41.935257+00:00", "meta": {"OBJECT_NAME": "COSMOS 2251 DEB", "OBJECT_ID": "1993-036BHJ", "EPOCH": "2025-12-12T22:45:06.098400", "MEAN_MOTION": 13.59808663, "ECCENTRICITY": 0.03985351, "INCLINATION": 73.9378, "RA_OF_ASC_NODE": 335.5481, "ARG_OF_PERICENTER": 347.3958, "MEAN_ANOMALY": 11.7404, "EPHEMERIS_TYPE": 0, "CLASSIFICATION_TYPE": "U", "NORAD_CAT_ID": 37270, "ELEMENT_SET_NO": 999, "REV_AT_EPOCH": 77072, "BSTAR": 0.0064936549, "MEAN_MOTION_DOT": 8.148e-05, "MEAN_MOTION_DDOT": 0}, "tle": {"line1": "1 37270U 93036BHJ 25346.94798725  .00008148  00000+0  64937-2 0  9992", "line2": "2 37270  73.9378 335.5481 0398535 347.3958  11.7404 13.59808663770728"}}, "geometry": {"type": "Point", "coordinates": [-90.51803853506918, -68.4651147618467]}}, {"type": "Feature", "properties": {"norad_id": 37278, "name": "COSMOS 2251 DEB", "group": "cosmos-2251-debris", "lat": 10.217452552565124, "lon": 144.7027175674644, "alt_km": 640.8770665728853, "timestamp": "2025-12-24T16:52:41.935268+00:00", "meta": {"OBJECT_NAME": "COSMOS 2251 DEB", "OBJECT_ID": "1993-036BHS", "EPOCH": "2025-12-22T06:43:10.079328", "MEAN_MOTION": 14.15136552, "ECCENTRICITY": 0.02988964, "INCLINATION": 73.7862, "RA_OF_ASC_NODE": 332.08, "ARG_OF_PERICENTER": 152.8639, "MEAN_ANOMALY": 274.4968, "EPHEMERIS_TYPE": 0, "CLASSIFICATION_TYPE": "U", "NORAD_CAT_ID": 37278, "ELEMENT_SET_NO": 999, "REV_AT_EPOCH": 63964, "BSTAR": 0.0007998951, "MEAN_MOTION_DOT": 2.366e-05, "MEAN_MOTION_DDOT": 0}, "tle": {"line1": "1 37278U 93036BHS 25356.27997777  .00002366  00000+0  79990-3 0  9997", "line2": "2 37278  73.7862 332.0800 0298896 152.8639 274.4968 14.15136552639645"}}, "geometry": {"type": "Point", "coordinates": [144.7027175674644, 10.217452552565124]}}, {"type": "Feature", "properties": {"norad_id": 37280, "name": "COSMOS 2251 DEB", "group": "cosmos-2251-debris", "lat": -57.40265007292974, "lon": 9.079339759664704, "alt_km": 902.2704818182729, "timestamp": "2025-12-24T16:52:41.935278+00:00", "meta": {"OBJECT_NAME": "COSMOS 2251 DEB", "OBJECT_ID": "1993-036BHU", "EPOCH": "2025-12-22T09:21:04.007808", "MEAN_MOTION": 14.19363695, "ECCENTRICITY": 0.0130066, "INCLINATION": 74.0303, "RA_OF_ASC_NODE": 39.8171, "ARG_OF_PERICENTER": 166.444, "MEAN_ANOMALY": 194.0254, "EPHEMERIS_TYPE": 0, "CLASSIFICATION_TYPE": "U", "NORAD_CAT_ID": 37280, "ELEMENT_SET_NO": 999, "REV_AT_EPOCH": 57460, "BSTAR": 0.0011560526, "MEAN_MOTION_DOT": 2.619e-05, "MEAN_MOTION_DDOT": 0}, "tle": {"line1": "1 37280U 93036BHU 25356.38962972  .00002619  00000+0  11561-2 0  9991", "line2": "2 37280  74.0303  39.8171 0130066 166.4440 194.0254 14.19363695574603"}}, "geometry": {"type": "Point", "coordinates": [9.079339759664704, -57.40265007292974]}}, {"type": "Feature", "properties": {"norad_id": 37284, "name": "COSMOS 2251 DEB", "group": "cosmos-2251-debris", "lat": 14.344553514632564, "lon": 139.7559748983355, "alt_km": 849.4135691850088, "timestamp": "2025-12-24T16:52:41.935289+00:00", "meta": {"OBJECT_NAME": "COSMOS 2251 DEB", "OBJECT_ID": "1993-036BHY", "EPOCH": "2025-12-10T18:04:20.469216", "MEAN_MOTION": 14.12686618, "ECCENTRICITY": 0.01605026, "INCLINATION": 74.0123, "RA_OF_ASC_NODE": 160.2425, "ARG_OF_PERICENTER": 312.4867, "MEAN_ANOMALY": 59.8736, "EPHEMERIS_TYPE": 0, "CLASSIFICATION_TYPE": "U", "NORAD_CAT_ID": 37284, "ELEMENT_SET_NO": 999, "REV_AT_EPOCH": 59147, "BSTAR": 0.001592138, "MEAN_MOTION_DOT": 3.31e-05, "MEAN_MOTION_DDOT": 0}, "tle": {"line1": "1 37284U 93036BHY 25344.75301469  .00003310  00000+0  15921-2 0  9994", "line2": "2 37284  74.0123 160.2425 0160502 312.4867  59.8736 14.12686618591475"}}, "geometry": {"type": "Point", "coordinates": [139.7559748983355, 14.344553514632564]}}, {"type": "Feature", "properties": {"norad_id": 37292, "name": "COSMOS 2251 DEB", "group": "cosmos-2251-debris", "lat": 73.69599892530971, "lon": 132.50329531481088, "alt_km": 806.4045994124617, "timestamp": "2025-12-24T16:52:41.935299+00:00", "meta": {"OBJECT_NAME": "COSMOS 2251 DEB", "OBJECT_ID": "1993-036BJG", "EPOCH": "2025-12-02T14:04:30.366912", "MEAN_MOTION": 14.03226454, "ECCENTRICITY": 0.02102512, "INCLINATION": 74.129, "RA_OF_ASC_NODE": 67.3453, "ARG_OF_PERICENTER": 73.1105, "MEAN_ANOMALY": 289.2966, "EPHEMERIS_TYPE": 0, "CLASSIFICATION_TYPE": "U", "NORAD_CAT_ID": 37292, "ELEMENT_SET_NO": 999, "REV_AT_EPOCH": 59706, "BSTAR": 0.0022453288, "MEAN_MOTION_DOT": 4.236e-05, "MEAN_MOTION_DDOT": 0}, "tle": {"line1": "1 37292U 93036BJG 25336.58646258  .00004236  00000+0  22453-2 0  9999", "line2": "2 37292  74.1290  67.3453 0210251  73.1105 289.2966 14.03226454597064"}}, "geometry": {"type": "Point", "coordinates": [132.50329531481088, 73.69599892530971]}}]}